IRIDIUM 166             
1 43570U 18061B   25077.00891512  .00000022  00000+0  80408-6 0  9991
2 43570  86.3927 247.3200 0001773  86.7852 273.3547 14.34217766348016
IRIDIUM 158             
1 43571U 18061C   25077.53535220  .00000014  00000+0 -19812-5 0  9993
2 43571  86.3928 247.1096 0002178  88.1297 272.0148 14.34217553348060
IRIDIUM 165             
1 43572U 18061D   25076.86303623  .00000008  00000+0 -41815-5 0  9990
2 43572  86.3931 247.4285 0001926  96.8122 263.3293 14.34217652347985
IRIDIUM 155             
1 43573U 18061E   25076.89474930  .00000007  00000+0 -46354-5 0  9996
2 43573  86.3927 247.3072 0001953  83.8353 276.3065 14.34217303347957
IRIDIUM 154             
1 43574U 18061F   25077.01525817  .00000033  00000+0  46521-5 0  9997
2 43574  86.3929 247.3675 0002040  93.5211 266.6218 14.34217434348024
IRIDIUM 163             
1 43575U 18061G   25077.48460634  .00000469  00000+0  16057-3 0  9996
2 43575  86.3923 247.1005 0002202  93.6387 266.5060 14.34218176348061
IRIDIUM 156             
1 43576U 18061H   25076.97086042  .00000002  00000+0 -64172-5 0  9994
2 43576  86.3928 247.3227 0001926  81.7888 278.3526 14.34217420347979
IRIDIUM 164             
1 43577U 18061J   25076.88206359  .00000045  00000+0  89539-5 0  9990
2 43577  86.3929 247.3928 0001939  97.7955 262.3461 14.34217952348012
